[{"OBJECT_NAME":"SHIYAN-24C 03","OBJECT_ID":"2023-206C","EPOCH":"2026-03-09T21:23:43.281888","MEAN_MOTION":14.97896938,"ECCENTRICITY":0.0002411,"INCLINATION":97.3969,"RA_OF_ASC_NODE":41.7507,"ARG_OF_PERICENTER":66.6237,"MEAN_ANOMALY":293.524,"EPHEMERIS_TYPE":0,"CLASSIFICATION_TYPE":"U","NORAD_CAT_ID":58652,"ELEMENT_SET_NO":999,"REV_AT_EPOCH":12043,"BSTAR":0.00011928,"MEAN_MOTION_DOT":1.35e-5,"MEAN_MOTION_DDOT":0},{"OBJECT_NAME":"STARLINK-35688","OBJECT_ID":"2025-293S","EPOCH":"2026-03-09T11:52:35.116896","MEAN_MOTION":14.98331404,"ECCENTRICITY":0.00035264,"INCLINATION":70.0001,"RA_OF_ASC_NODE":95.148,"ARG_OF_PERICENTER":267.3625,"MEAN_ANOMALY":92.7131,"EPHEMERIS_TYPE":0,"CLASSIFICATION_TYPE":"U","NORAD_CAT_ID":67019,"ELEMENT_SET_NO":999,"REV_AT_EPOCH":1485,"BSTAR":0.00037488017,"MEAN_MOTION_DOT":4.383e-5,"MEAN_MOTION_DDOT":0}]
